NORAD_CAT_ID,OBJECT_NAME,OBJECT_TYPE,EPOCH,MEAN_MOTION,ECCENTRICITY,INCLINATION,RA_OF_ASC_NODE,ARG_OF_PERICENTER,MEAN_ANOMALY,BSTAR,MEAN_MOTION_DOT,MEAN_MOTION_DDOT,TLE_LINE0,TLE_LINE1,TLE_LINE2,SEMIMAJOR_AXIS,PERIOD,APOGEE,PERIGEE,DECAYED
49739.0,STARLINK-3155,PAYLOAD,2023-06-13 04:04:00,15.08842844,0.0001057,53.2175,330.6304,89.9891,270.1222,3.3994e-05,2.53e-06,0.0,0 STARLINK-3155,1 49739U 21115R   23164.16944691  .00000253  00000-0  33994-4 0  9990,2 49739  53.2175 330.6304 0001057  89.9891 270.1222 15.08842844 84342,6917.872,95.437,540.468,539.005,0.0
49739.0,STARLINK-3155,PAYLOAD,2023-06-13 19:57:51,15.08841211,0.0001053,53.2174,327.6571,82.6041,277.5071,9.4707e-05,1.22e-05,0.0,0 STARLINK-3155,1 49739U 21115R   23164.83184784  .00001220  00000-0  94707-4 0  9997,2 49739  53.2174 327.6571 0001053  82.6041 277.5071 15.08841211 84447,6917.877,95.437,540.47,539.013,0.0
49739.0,STARLINK-3155,PAYLOAD,2023-06-14 03:54:47,15.08834996,0.0001052,53.2176,326.1696,84.2083,275.9029,0.00021817,3.186e-05,0.0,0 STARLINK-3155,1 49739U 21115R   23165.16305034  .00003186  00000-0  21817-3 0  9991,2 49739  53.2176 326.1696 0001052  84.2083 275.9029 15.08834996 84496,6917.896,95.438,540.488,539.033,0.0
49739.0,STARLINK-3155,PAYLOAD,2023-06-14 19:48:38,15.08842194,0.0001314,53.2185,323.1943,90.954,269.1602,5.1171e-05,5.27e-06,0.0,0 STARLINK-3155,1 49739U 21115R   23165.82544935  .00000527  00000-0  51171-4 0  9992,2 49739  53.2185 323.1943 0001314  90.9540 269.1602 15.08842194 84593,6917.874,95.437,540.648,538.83,0.0
49739.0,STARLINK-3155,PAYLOAD,2023-06-15 10:07:07,15.08839848,0.00014,53.2175,320.5195,80.1445,279.9706,7.5436e-05,9.13e-06,0.0,0 STARLINK-3155,1 49739U 21115R   23166.42161099  .00000913  00000-0  75436-4 0  9994,2 49739  53.2175 320.5195 0001400  80.1445 279.9706 15.08839848 85792,6917.881,95.438,540.714,538.777,0.0
49739.0,STARLINK-3155,PAYLOAD,2023-06-15 16:28:39,15.08843364,0.0001082,53.2186,319.3309,83.5557,276.5559,0.00010175,1.332e-05,0.0,0 STARLINK-3155,1 49739U 21115R   23166.68656745  .00001332  00000-0  10175-3 0  9993,2 49739  53.2186 319.3309 0001082  83.5557 276.5559 15.08843364 84723,6917.87,95.437,540.484,538.987,0.0
49739.0,STARLINK-3155,PAYLOAD,2023-06-16 11:33:16,15.08846872,0.0001112,53.2182,315.7628,81.277,278.8348,0.00012875,1.762e-05,0.0,0 STARLINK-3155,1 49739U 21115R   23167.48144231  .00001762  00000-0  12875-3 0  9990,2 49739  53.2182 315.7628 0001112  81.2770 278.8348 15.08846872 84840,6917.859,95.437,540.494,538.955,0.0
49739.0,STARLINK-3155,PAYLOAD,2023-06-16 16:19:25,15.08852856,0.0001008,53.2181,314.8689,94.2073,265.9035,0.00025004,3.695e-05,0.0,0 STARLINK-3155,1 49739U 21115R   23167.68015522  .00003695  00000-0  25004-3 0  9997,2 49739  53.2181 314.8689 0001008  94.2073 265.9035 15.08852856 85985,6917.841,95.437,540.403,539.009,0.0
49739.0,STARLINK-3155,PAYLOAD,2023-06-17 09:48:41,15.08817025,7.28e-05,53.2174,311.5985,20.0009,340.1011,-0.00025303,-4.31e-05,0.0,0 STARLINK-3155,1 49739U 21115R   23168.40881870 -.00004310  00000-0 -25303-3 0  9994,2 49739  53.2174 311.5985 0000728  20.0009 340.1011 15.08817025 86096,6917.951,95.439,540.319,539.312,0.0
49739.0,STARLINK-3155,PAYLOAD,2023-06-17 11:24:04,15.08820719,0.000104,53.2175,311.3017,95.3591,264.752,-0.00022061,-3.795e-05,0.0,0 STARLINK-3155,1 49739U 21115R   23168.47505698 -.00003795  00000-0 -22061-3 0  9996,2 49739  53.2175 311.3017 0001040  95.3591 264.7520 15.08820719 84997,6917.939,95.439,540.524,539.085,0.0
49739.0,STARLINK-3155,PAYLOAD,2023-06-17 16:10:14,15.08823443,9.77e-05,53.2175,310.4096,102.6054,257.5047,-0.00016434,-2.901e-05,0.0,0 STARLINK-3155,1 49739U 21115R   23168.67377712 -.00002901  00000-0 -16434-3 0  9997,2 49739  53.2175 310.4096 0000977 102.6054 257.5047 15.08823443 86137,6917.931,95.439,540.472,539.12,0.0
49739.0,STARLINK-3155,PAYLOAD,2023-06-18 09:39:28,15.08837102,9.65e-05,53.2179,307.1384,105.3231,254.7867,0.00013917,1.928e-05,0.0,0 STARLINK-3155,1 49739U 21115R   23169.40241431  .00001928  00000-0  13917-3 0  9996,2 49739  53.2179 307.1384 0000965 105.3231 254.7867 15.08837102 86246,6917.889,95.438,540.422,539.087,0.0
49739.0,STARLINK-3155,PAYLOAD,2023-06-18 17:36:24,15.08855124,9.5e-05,53.2178,305.6511,104.3455,255.7643,0.0011715,0.00018413,0.0,0 STARLINK-3155,1 49739U 21115R   23169.73361573  .00018413  00000-0  11715-2 0  9992,2 49739  53.2178 305.6511 0000950 104.3455 255.7643 15.08855124 85180,6917.834,95.437,540.356,539.042,0.0
49739.0,STARLINK-3155,PAYLOAD,2023-06-19 01:33:19,15.08870345,9.2e-05,53.2178,304.1643,102.8555,257.254,0.0012129,0.00019084,0.0,0 STARLINK-3155,1 49739U 21115R   23170.06480967  .00019084  00000-0  12129-2 0  9994,2 49739  53.2178 304.1643 0000920 102.8555 257.2540 15.08870345 86345,6917.788,95.436,540.289,539.016,0.0
49739.0,STARLINK-3155,PAYLOAD,2023-06-19 11:05:38,15.08847717,9.47e-05,53.2176,302.3806,103.9224,256.1874,0.00020686,3.007e-05,0.0,0 STARLINK-3155,1 49739U 21115R   23170.46225367  .00003007  00000-0  20686-3 0  9995,2 49739  53.2176 302.3806 0000947 103.9224 256.1874 15.08847717 86400,6917.857,95.437,540.377,539.067,0.0
49739.0,STARLINK-3155,PAYLOAD,2023-06-19 15:51:47,15.08851858,8.99e-05,53.2174,301.4888,102.7396,257.3696,0.00029588,4.426e-05,0.0,0 STARLINK-3155,1 49739U 21115R   23170.66097126  .00004426  00000-0  29588-3 0  9993,2 49739  53.2174 301.4888 0000899 102.7396 257.3696 15.08851858 85327,6917.844,95.437,540.331,539.087,0.0
49739.0,STARLINK-3155,PAYLOAD,2023-06-20 09:21:02,15.08838434,9.28e-05,53.2173,298.2183,99.0079,261.1018,-0.00012346,-2.252e-05,0.0,0 STARLINK-3155,1 49739U 21115R   23171.38961444 -.00002252  00000-0 -12346-3 0  9997,2 49739  53.2173 298.2183 0000928  99.0079 261.1018 15.08838434 86547,6917.885,95.438,540.392,539.108,0.0
49739.0,STARLINK-3155,PAYLOAD,2023-06-20 18:53:21,15.08850012,0.0001069,53.2169,296.4343,98.2948,261.8165,6.6676e-05,7.74e-06,0.0,0 STARLINK-3155,1 49739U 21115R   23171.78704948  .00000774  00000-0  66676-4 0  9996,2 49739  53.2169 296.4343 0001069  98.2948 261.8165 15.08850012 85492,6917.85,95.437,540.454,538.975,0.0
49739.0,STARLINK-3155,PAYLOAD,2023-06-21 12:22:36,15.08836107,9.83e-05,53.2171,293.1627,104.0922,256.0179,-3.2597e-05,-8.06e-06,0.0,0 STARLINK-3155,1 49739U 21115R   23172.51569513 -.00000806  00000-0 -32597-4 0  9998,2 49739  53.2171 293.1627 0000983 104.0922 256.0179 15.08836107 86712,6917.892,95.438,540.437,539.077,0.0
49739.0,STARLINK-3155,PAYLOAD,2023-06-21 13:57:59,15.0883812,9.81e-05,53.2168,292.8649,102.6569,257.4533,3.5445e-05,2.76e-06,0.0,0 STARLINK-3155,1 49739U 21115R   23172.58193542  .00000276  00000-0  35445-4 0  9994,2 49739  53.2168 292.8649 0000981 102.6569 257.4533 15.08838120 85611,6917.886,95.438,540.43,539.072,0.0
49739.0,STARLINK-3155,PAYLOAD,2023-06-21 15:33:22,15.08841605,0.0001046,53.2173,292.5676,93.6338,266.4774,8.0304e-05,9.91e-06,0.0,0 STARLINK-3155,1 49739U 21115R   23172.64817406  .00000991  00000-0  80304-4 0  9991,2 49739  53.2173 292.5676 0001046  93.6338 266.4774 15.08841605 85620,6917.875,95.437,540.464,539.017,0.0
49739.0,STARLINK-3155,PAYLOAD,2023-06-22 01:05:40,15.08847467,0.0001003,53.218,290.7809,68.4122,291.6977,-0.00021188,-3.659e-05,0.0,0 STARLINK-3155,1 49739U 21115R   23173.04561035 -.00003659  00000-0 -21188-3 0  9990,2 49739  53.2180 290.7809 0001003  68.4122 291.6977 15.08847467 86796,6917.858,95.437,540.416,539.029,0.0
49739.0,STARLINK-3155,PAYLOAD,2023-06-22 07:27:13,15.08837096,0.0001023,53.2176,289.5953,79.3163,280.7945,9.0577e-05,1.154e-05,0.0,0 STARLINK-3155,1 49739U 21115R   23173.31057862  .00001154  00000-0  90577-4 0  9993,2 49739  53.2176 289.5953 0001023  79.3163 280.7945 15.08837096 86831,6917.889,95.438,540.462,539.047,0.0
49739.0,STARLINK-3155,PAYLOAD,2023-06-22 16:59:32,15.0884824,7.07e-05,53.2167,287.8104,69.9964,290.1104,0.0001704,2.426e-05,0.0,0 STARLINK-3155,1 49739U 21115R   23173.70801184  .00002426  00000-0  17040-3 0  9996,2 49739  53.2167 287.8104 0000707  69.9964 290.1104 15.08848240 86893,6917.855,95.437,540.209,539.231,0.0
49739.0,STARLINK-3155,PAYLOAD,2023-06-23 00:56:28,15.08837961,0.000105,53.2177,286.3228,83.5576,276.5536,0.00026657,3.957e-05,0.0,0 STARLINK-3155,1 49739U 21115R   23174.03921764  .00003957  00000-0  26657-3 0  9994,2 49739  53.2177 286.3228 0001050  83.5576 276.5536 15.08837961 86949,6917.887,95.438,540.478,539.025,0.0
49739.0,STARLINK-3155,PAYLOAD,2023-06-24 07:08:48,15.08837318,8.84e-05,53.2183,280.6752,87.332,272.7773,0.00013028,1.786e-05,0.0,0 STARLINK-3155,1 49739U 21115R   23175.29777895  .00001786  00000-0  13028-3 0  9993,2 49739  53.2183 280.6752 0000884  87.3320 272.7773 15.08837318 87137,6917.889,95.438,540.365,539.142,0.0
49739.0,STARLINK-3155,PAYLOAD,2023-06-25 10:10:21,15.08843403,0.0001077,53.2167,275.6192,89.0448,271.0668,0.00010791,1.43e-05,0.0,0 STARLINK-3155,1 49739U 21115R   23176.42385615  .00001430  00000-0  10791-3 0  9994,2 49739  53.2167 275.6192 0001077  89.0448 271.0668 15.08843403 87302,6917.87,95.437,540.48,538.99,0.0
49739.0,STARLINK-3155,PAYLOAD,2023-06-26 10:01:08,15.08833601,9.98e-05,53.2172,271.1592,99.0083,261.1022,4.5768e-05,4.41e-06,0.0,0 STARLINK-3155,1 49739U 21115R   23177.41746323  .00000441  00000-0  45768-4 0  9995,2 49739  53.2172 271.1592 0000998  99.0083 261.1022 15.08833601 87459,6917.9,95.438,540.455,539.075,0.0
49739.0,STARLINK-3155,PAYLOAD,2023-06-27 11:27:18,15.08841951,0.0001088,53.2175,266.4026,100.7035,259.408,9.6614e-05,1.25e-05,0.0,0 STARLINK-3155,1 49739U 21115R   23178.47730073  .00001250  00000-0  96614-4 0  9992,2 49739  53.2175 266.4026 0001088 100.7035 259.4080 15.08841951 87618,6917.874,95.437,540.492,538.987,0.0
49739.0,STARLINK-3155,PAYLOAD,2023-06-28 09:42:42,15.08837295,0.0001043,53.2177,262.2398,104.3991,255.7117,8.0865e-05,9.99e-06,0.0,0 STARLINK-3155,1 49739U 21115R   23179.40466417  .00000999  00000-0  80865-4 0  9994,2 49739  53.2177 262.2398 0001043 104.3991 255.7117 15.08837295 87759,6917.889,95.438,540.475,539.032,0.0
